SL-3 R/B                
1 19046U 88032B   26091.18063609  .00005381  00000+0  24961-3 0  9993
2 19046  97.5214  74.3599 0026702 151.9595 208.3085 15.20158738 55522
SL-16 R/B               
1 19120U 88039B   26091.17601852  .00000036  00000+0  39803-4 0  9994
2 19120  71.0172  20.9995 0023755 302.1893  57.6928 14.19620187961579
COSMOS 1953             
1 19210U 88050A   26091.20828857  .00006940  00000+0  24576-3 0  9997
2 19210  82.5070 135.5931 0012139  52.4869 307.7472 15.28873562 41220
SL-8 R/B                
1 19257U 88053B   26091.11501248  .00000383  00000+0  13245-3 0  9999
2 19257  74.0462  71.1255 0021409 247.4387 184.6317 14.38931847979824
COSMOS 1975             
1 19573U 88093A   26091.18365323  .00006814  00000+0  24478-3 0  9998
2 19573  82.5154  95.0934 0013403  92.3030 267.9744 15.28384195 22841
SL-14 R/B               
1 19574U 88093B   26091.24367767  .00000599  00000+0  66160-4 0  9999
2 19574  82.5343  20.8756 0019816 327.4381 193.7289 14.85683361  4361
SL-16 R/B               
1 19650U 88102B   26091.15488839  .00000085  00000+0  66896-4 0  9995
2 19650  70.9969 104.2270 0015253 328.4588  31.5619 14.16153752930072
INTERCOSMOS 24          
1 20261U 89080A   26090.96418058  .00000581  00000+0  17158-3 0  9992
2 20261  82.6014  89.8945 1186924 241.0735 106.6319 12.59586187669605
SL-14 R/B               
1 20262U 89080C   26091.20091185  .00000423  00000+0  11835-3 0  9990
2 20262  82.5950 158.7413 1230907 133.3200 237.7407 12.50515076662967
DELTA 1 R/B             
1 20323U 89089B   26091.17574904  .00000385  00000+0  10365-3 0  9992
2 20323  97.0688 295.0347 0070333  52.3133 308.4415 14.50681654898991
ARIANE 40 R/B           
1 20443U 90005H   26091.18955671  .00000297  00000+0  10780-3 0  9993
2 20443  98.3037 151.1754 0011135 133.2837 226.9282 14.39885236896044
DELTA 2 R/B(1)          
1 20453U 90008B   26091.19517911  .00070637  00000+0  75462-3 0  9992
2 20453  35.6042  26.8269 0076892 110.1591 250.7437 15.59028049929640
